; Max Travels: 1200.0, 600.0, -600.0

G53 X0. Y0. Z100.;
G0 X50. Y100.;
Z0.;

; I
G01 Y500. F100.;
X100.;
Y100.;
X50.;

G0 Z100.;
X150.;
Z0.;

; M
G01 Y500.;
X200.;
X300. Y350.;
X400. Y500.;
X450.;
Y100.;
X400.;
Y425.;
X300. Y250.;
X200. Y425.;
Y100.;
X150.;

G0 Z100.;
X500.;
Z0.;

; A
G01 X650. Y500.;
X800. Y100.;
X750.;
X650. Y400.;
X550. Y100.;
X500.;

G0 Z100.;
X850.;
Z0.;

; X
G01 X975. Y300.;
X850. Y500.;
X900.;
X1000. Y350.;
X1100. Y500.;
X1150.;
X1025. Y300.;
X1150. Y100.;
X1100.;
X1000. Y250.;
X900. Y100.;
X850.;

;G53 Z0.;
;G53 X0. Y0.;
M30;
