%
O0002
G90 G94 G17 G49 G40 G80
G21
G53 G0 Z100.

T1 M6
S5000 M3
G17 G90 G94
M8
G0 X102.641 Y60.321
G43 Z12.7 H1
G0 Z0.
G1 X105.617 Y60.433 F1000.
X108.589 Y60.562
X110.072 Y60.637
X111.553 Y60.723
X113.03 Y60.821
X114.504 Y60.934
X115.975 Y61.063
X117.44 Y61.211
X118.901 Y61.379
X120.357 Y61.57
X121.806 Y61.786
X123.249 Y62.029
X124.685 Y62.3
X126.113 Y62.602
X127.534 Y62.937
X128.946 Y63.307
X130.351 Y63.71
X131.748 Y64.143
X133.138 Y64.604
X134.522 Y65.091
X135.9 Y65.602
X137.273 Y66.134
X138.642 Y66.684
X140.007 Y67.252
X141.368 Y67.833
X142.726 Y68.426
X145.437 Y69.637
X148.143 Y70.868
Y133.717
X94.97
Y111.227
X119.988
Y86.82
X118.048 Y86.123
X117.075 Y85.79
X116.098 Y85.474
X115.118 Y85.181
X114.131 Y84.917
X113.138 Y84.688
X112.639 Y84.589
X112.138 Y84.499
X111.13 Y84.348
X110.116 Y84.229
X109.096 Y84.139
X108.072 Y84.072
X107.044 Y84.023
X106.014 Y83.989
X103.949 Y83.943
X102.065 Y84.075
X100.188 Y84.223
X99.254 Y84.308
X98.324 Y84.404
X97.399 Y84.511
X96.479 Y84.632
X95.567 Y84.77
X94.661 Y84.925
X93.764 Y85.101
X92.876 Y85.299
X91.997 Y85.521
X91.129 Y85.769
X90.273 Y86.045
X89.428 Y86.352
X88.597 Y86.691
X87.779 Y87.062
X86.974 Y87.465
X86.18 Y87.895
X85.397 Y88.352
X84.623 Y88.834
X83.859 Y89.337
X83.102 Y89.86
X82.353 Y90.4
X81.61 Y90.956
X80.872 Y91.525
X80.138 Y92.105
X78.681 Y93.289
X77.231 Y94.491
X76.061 Y96.162
X74.91 Y97.839
X74.346 Y98.682
X73.795 Y99.529
X73.257 Y100.38
X72.735 Y101.238
X72.231 Y102.101
X71.748 Y102.972
X71.288 Y103.851
X70.853 Y104.739
X70.446 Y105.636
X70.068 Y106.544
X69.723 Y107.463
X69.41 Y108.393
X69.129 Y109.335
X68.877 Y110.287
X68.653 Y111.248
X68.454 Y112.218
X68.278 Y113.196
X68.124 Y114.182
X67.99 Y115.174
X67.873 Y116.173
X67.772 Y117.177
X67.685 Y118.186
X67.609 Y119.2
X67.543 Y120.216
X67.433 Y122.257
X67.338 Y124.303
X67.469 Y126.41
X67.617 Y128.512
X67.702 Y129.558
X67.799 Y130.6
X67.908 Y131.638
X68.031 Y132.67
X68.172 Y133.696
X68.332 Y134.714
X68.513 Y135.725
X68.717 Y136.727
X68.947 Y137.719
X69.205 Y138.701
X69.492 Y139.672
X69.811 Y140.631
X70.164 Y141.577
X70.552 Y142.51
X70.973 Y143.431
X71.424 Y144.34
X71.903 Y145.239
X72.408 Y146.128
X72.937 Y147.008
X73.487 Y147.881
X74.056 Y148.746
X74.641 Y149.606
X75.24 Y150.459
X75.851 Y151.309
X77.098 Y152.999
X78.365 Y154.681
X79.919 Y155.958
X81.481 Y157.217
X82.267 Y157.834
X83.058 Y158.44
X83.854 Y159.032
X84.657 Y159.608
X85.467 Y160.167
X86.285 Y160.704
X87.113 Y161.219
X87.95 Y161.709
X88.799 Y162.172
X89.659 Y162.606
X90.533 Y163.008
X91.42 Y163.375
X92.321 Y163.709
X93.235 Y164.01
X94.161 Y164.282
X95.098 Y164.525
X96.046 Y164.743
X97.004 Y164.938
X97.97 Y165.111
X98.944 Y165.264
X99.925 Y165.401
X100.912 Y165.522
X101.904 Y165.631
X102.9 Y165.729
X104.903 Y165.901
X106.912 Y166.056
X109.229 Y165.963
X111.543 Y165.856
X113.851 Y165.723
X115.001 Y165.643
X116.148 Y165.551
X117.293 Y165.447
X118.434 Y165.327
X119.57 Y165.192
X120.703 Y165.039
X121.83 Y164.866
X122.953 Y164.672
X124.07 Y164.456
X125.181 Y164.215
X126.286 Y163.948
X127.384 Y163.654
X128.475 Y163.335
X129.561 Y162.992
X130.642 Y162.627
X131.718 Y162.242
X132.789 Y161.838
X133.856 Y161.419
X134.92 Y160.984
X135.98 Y160.537
X138.094 Y159.612
X140.2 Y158.657
X142.303 Y157.688
Y184.1
X138.015 Y185.356
X135.867 Y185.96
X133.714 Y186.535
X132.636 Y186.81
X131.555 Y187.073
X130.473 Y187.325
X129.389 Y187.564
X128.303 Y187.789
X127.214 Y187.999
X126.122 Y188.192
X125.028 Y188.367
X123.931 Y188.526
X122.831 Y188.669
X121.729 Y188.797
X120.624 Y188.911
X119.518 Y189.012
X118.41 Y189.102
X116.188 Y189.251
X113.961 Y189.366
X111.73 Y189.455
X107.261 Y189.592
X103.747 Y189.368
X101.994 Y189.247
X100.244 Y189.115
X98.5 Y188.969
X96.762 Y188.805
X95.033 Y188.62
X93.313 Y188.409
X91.604 Y188.171
X89.907 Y187.9
X89.063 Y187.751
X88.224 Y187.593
X87.387 Y187.426
X86.555 Y187.248
X85.726 Y187.059
X84.902 Y186.859
X84.082 Y186.648
X83.267 Y186.425
X82.457 Y186.189
X81.651 Y185.94
X80.851 Y185.678
X80.055 Y185.402
X79.265 Y185.112
X78.481 Y184.807
X77.702 Y184.487
X76.929 Y184.154
X76.16 Y183.806
X75.397 Y183.445
X74.639 Y183.072
X73.885 Y182.686
X73.136 Y182.289
X72.391 Y181.88
X71.65 Y181.46
X70.913 Y181.03
X69.449 Y180.142
X67.999 Y179.218
X66.562 Y178.262
X65.134 Y177.279
X63.715 Y176.273
X62.304 Y175.247
X60.898 Y174.205
X59.498 Y173.152
X56.703 Y171.025
X54.568 Y168.405
X53.51 Y167.091
X52.463 Y165.772
X51.432 Y164.448
X50.419 Y163.115
X49.429 Y161.774
X48.466 Y160.422
X47.533 Y159.057
X46.635 Y157.679
X46.199 Y156.984
X45.774 Y156.286
X45.359 Y155.583
X44.955 Y154.875
X44.562 Y154.164
X44.181 Y153.447
X43.813 Y152.725
X43.457 Y151.998
X43.115 Y151.266
X42.786 Y150.528
X42.472 Y149.785
X42.172 Y149.036
X41.887 Y148.281
X41.615 Y147.52
X41.357 Y146.754
X41.112 Y145.983
X40.879 Y145.206
X40.659 Y144.425
X40.45 Y143.639
X40.252 Y142.849
X40.065 Y142.054
X39.889 Y141.255
X39.722 Y140.452
X39.564 Y139.645
X39.276 Y138.022
X39.02 Y136.385
X38.792 Y134.736
X38.59 Y133.078
X38.409 Y131.41
X38.245 Y129.736
X38.097 Y128.056
X37.959 Y126.371
X37.701 Y122.995
X37.901 Y119.774
X38.01 Y118.167
X38.129 Y116.564
X38.261 Y114.966
X38.41 Y113.375
X38.579 Y111.791
X38.772 Y110.217
X38.992 Y108.653
X39.242 Y107.102
X39.525 Y105.563
X39.68 Y104.799
X39.845 Y104.039
X40.021 Y103.282
X40.206 Y102.53
X40.403 Y101.782
X40.611 Y101.039
X40.83 Y100.3
X41.062 Y99.566
X41.306 Y98.837
X41.564 Y98.113
X41.835 Y97.394
X42.119 Y96.68
X42.418 Y95.973
X42.73 Y95.27
X43.056 Y94.573
X43.394 Y93.88
X43.744 Y93.192
X44.106 Y92.509
X44.479 Y91.831
X44.863 Y91.156
X45.258 Y90.486
X45.662 Y89.819
X46.498 Y88.497
X47.368 Y87.188
X48.268 Y85.89
X49.194 Y84.603
X50.142 Y83.325
X51.109 Y82.054
X52.091 Y80.788
X53.085 Y79.528
X55.091 Y77.014
X57.735 Y75.074
X59.061 Y74.113
X60.391 Y73.163
X61.726 Y72.228
X63.067 Y71.311
X64.417 Y70.417
X65.776 Y69.548
X67.146 Y68.709
X68.529 Y67.902
X69.225 Y67.513
X69.924 Y67.133
X70.627 Y66.763
X71.334 Y66.404
X72.045 Y66.056
X72.761 Y65.719
X73.48 Y65.394
X74.204 Y65.082
X74.933 Y64.783
X75.667 Y64.496
X76.406 Y64.224
X77.149 Y63.965
X77.898 Y63.719
X78.651 Y63.485
X79.408 Y63.264
X80.17 Y63.055
X80.936 Y62.856
X81.706 Y62.669
X82.479 Y62.493
X83.257 Y62.326
X84.822 Y62.022
X86.401 Y61.754
X87.991 Y61.518
X89.592 Y61.311
X91.202 Y61.131
X92.821 Y60.973
X94.447 Y60.834
X96.079 Y60.712
X97.715 Y60.603
X99.355 Y60.503
X102.641 Y60.321
G0 Z100.
X166.71 Y67.294
Z0.
G1 X168.649 Y66.425 F1000.
X169.622 Y65.999
X170.598 Y65.584
X171.579 Y65.183
X172.566 Y64.8
X173.559 Y64.439
X174.561 Y64.102
X175.572 Y63.791
X176.59 Y63.503
X177.614 Y63.234
X178.643 Y62.98
X179.677 Y62.74
X180.714 Y62.509
X182.793 Y62.064
X185.224 Y61.678
X187.657 Y61.314
X188.875 Y61.147
X190.094 Y60.993
X191.314 Y60.856
X192.537 Y60.738
X193.761 Y60.64
X194.986 Y60.561
X196.214 Y60.497
X197.442 Y60.446
X199.901 Y60.373
X202.362 Y60.321
X204.762 Y60.378
X207.159 Y60.459
X208.356 Y60.515
X209.551 Y60.585
X210.745 Y60.672
X211.936 Y60.78
X213.126 Y60.91
X214.313 Y61.061
X215.498 Y61.23
X216.682 Y61.414
X219.047 Y61.814
X221.409 Y62.238
X223.493 Y62.764
X224.531 Y63.038
X225.563 Y63.323
X226.59 Y63.625
X227.608 Y63.948
X228.616 Y64.296
X229.612 Y64.672
X230.595 Y65.08
X231.566 Y65.52
X232.526 Y65.986
X233.478 Y66.474
X234.422 Y66.98
X235.361 Y67.498
X237.23 Y68.558
X238.838 Y69.751
X239.632 Y70.357
X240.413 Y70.975
X241.177 Y71.608
X241.92 Y72.262
X242.638 Y72.938
X242.987 Y73.287
X243.327 Y73.643
X243.659 Y74.006
X243.984 Y74.377
X244.611 Y75.138
X245.213 Y75.924
X245.795 Y76.728
X246.36 Y77.549
X246.912 Y78.381
X247.995 Y80.064
X248.913 Y82.161
X249.354 Y83.213
X249.775 Y84.271
X250.166 Y85.335
X250.523 Y86.407
X250.686 Y86.947
X250.837 Y87.489
X250.976 Y88.035
X251.102 Y88.583
X251.216 Y89.134
X251.318 Y89.688
X251.409 Y90.245
X251.491 Y90.804
X251.626 Y91.928
X251.73 Y93.06
X251.81 Y94.197
X251.87 Y95.338
X251.961 Y97.629
X251.905 Y99.331
X251.868 Y100.18
X251.821 Y101.027
X251.76 Y101.872
X251.681 Y102.714
X251.581 Y103.552
X251.457 Y104.386
X251.305 Y105.215
X251.125 Y106.039
X250.923 Y106.859
X250.701 Y107.676
X250.463 Y108.49
X250.213 Y109.302
X249.695 Y110.922
X249.061 Y112.309
X248.736 Y112.998
X248.403 Y113.682
X248.058 Y114.357
X247.699 Y115.024
X247.322 Y115.679
X246.924 Y116.32
X246.504 Y116.948
X246.064 Y117.562
X245.606 Y118.165
X245.134 Y118.759
X244.65 Y119.345
X244.157 Y119.926
X243.157 Y121.077
X241.978 Y122.203
X240.785 Y123.313
X240.18 Y123.856
X239.567 Y124.388
X238.943 Y124.908
X238.308 Y125.413
X237.661 Y125.903
X237.003 Y126.379
X236.336 Y126.843
X235.661 Y127.297
X234.294 Y128.183
X232.915 Y129.053
X231.274 Y129.973
X229.628 Y130.881
X227.97 Y131.766
X227.135 Y132.197
X226.296 Y132.618
X225.451 Y133.029
X224.602 Y133.43
X222.892 Y134.211
X221.172 Y134.972
X219.447 Y135.722
X216.961 Y136.769
X215.722 Y137.301
X214.487 Y137.844
X213.259 Y138.401
X212.035 Y138.969
X209.597 Y140.124
X207.681 Y141.106
X206.734 Y141.614
X205.798 Y142.144
X204.879 Y142.701
X203.974 Y143.281
X202.188 Y144.482
X201.524 Y144.996
X200.87 Y145.519
X200.234 Y146.061
X199.926 Y146.341
X199.626 Y146.629
X199.335 Y146.927
X199.053 Y147.233
X198.512 Y147.868
X197.991 Y148.524
X197.481 Y149.189
X197.117 Y149.846
X196.773 Y150.508
X196.616 Y150.843
X196.47 Y151.182
X196.34 Y151.526
X196.228 Y151.874
X196.134 Y152.229
X196.058 Y152.588
X195.997 Y152.952
X195.947 Y153.32
X195.876 Y154.063
X195.825 Y154.812
X195.871 Y155.5
X195.935 Y156.183
X195.979 Y156.521
X196.034 Y156.856
X196.102 Y157.187
X196.186 Y157.514
X196.286 Y157.836
X196.403 Y158.153
X196.533 Y158.467
X196.674 Y158.777
X196.981 Y159.39
X197.306 Y159.998
X197.745 Y160.582
X198.195 Y161.155
X198.427 Y161.433
X198.666 Y161.704
X198.914 Y161.967
X199.171 Y162.219
X199.439 Y162.461
X199.715 Y162.693
X200.29 Y163.135
X200.885 Y163.555
X201.491 Y163.964
X202.28 Y164.385
X203.074 Y164.792
X203.879 Y165.173
X204.287 Y165.349
X204.699 Y165.514
X205.116 Y165.667
X205.537 Y165.81
X206.389 Y166.072
X207.25 Y166.31
X208.115 Y166.536
X209.195 Y166.743
X210.276 Y166.938
X211.36 Y167.109
X211.903 Y167.181
X212.447 Y167.243
X213.539 Y167.334
X214.635 Y167.392
X215.733 Y167.427
X216.832 Y167.451
X218.68 Y167.406
X219.602 Y167.368
X220.524 Y167.313
X221.444 Y167.236
X222.362 Y167.143
X224.198 Y166.928
X226.167 Y166.617
X227.149 Y166.446
X228.126 Y166.256
X229.099 Y166.042
X230.068 Y165.81
X232. Y165.316
X233.942 Y164.727
X234.907 Y164.416
X235.865 Y164.085
X236.814 Y163.73
X237.755 Y163.354
X239.627 Y162.57
X241.399 Y161.72
X242.275 Y161.277
X243.138 Y160.812
X243.986 Y160.319
X244.821 Y159.804
X246.47 Y158.734
Y184.798
X244.767 Y185.386
X243.061 Y185.957
X242.204 Y186.23
X241.344 Y186.492
X240.481 Y186.741
X239.614 Y186.974
X238.743 Y187.191
X237.868 Y187.393
X236.989 Y187.583
X236.108 Y187.762
X234.339 Y188.097
X232.566 Y188.415
X230.412 Y188.687
X228.257 Y188.941
X227.178 Y189.057
X226.099 Y189.163
X225.019 Y189.256
X223.938 Y189.335
X222.856 Y189.399
X221.773 Y189.45
X219.605 Y189.522
X217.435 Y189.564
X215.263 Y189.592
X212.886 Y189.528
X210.513 Y189.439
X209.328 Y189.376
X208.144 Y189.298
X206.964 Y189.2
X205.785 Y189.081
X204.61 Y188.936
X203.437 Y188.768
X202.266 Y188.58
X201.098 Y188.375
X199.931 Y188.157
X198.765 Y187.929
X196.435 Y187.456
X194.37 Y186.877
X193.341 Y186.578
X192.318 Y186.266
X191.302 Y185.939
X190.294 Y185.592
X189.297 Y185.22
X188.311 Y184.821
X187.339 Y184.391
X186.38 Y183.931
X185.431 Y183.446
X184.492 Y182.94
X183.559 Y182.417
X182.633 Y181.881
X180.788 Y180.788
X179.2 Y179.579
X178.415 Y178.965
X177.643 Y178.339
X176.887 Y177.699
X176.152 Y177.041
X175.44 Y176.359
X175.095 Y176.009
X174.757 Y175.652
X174.427 Y175.288
X174.105 Y174.916
X173.482 Y174.154
X172.882 Y173.369
X172.303 Y172.565
X171.741 Y171.747
X171.19 Y170.917
X170.11 Y169.238
X169.215 Y167.238
X168.785 Y166.234
X168.374 Y165.225
X167.991 Y164.209
X167.64 Y163.186
X167.48 Y162.671
X167.33 Y162.153
X167.192 Y161.632
X167.067 Y161.109
X166.953 Y160.582
X166.851 Y160.053
X166.76 Y159.521
X166.678 Y158.987
X166.541 Y157.912
X166.434 Y156.83
X166.351 Y155.742
X166.286 Y154.65
X166.187 Y152.458
X166.287 Y151.009
X166.398 Y149.563
X166.53 Y148.125
X166.695 Y146.698
X166.793 Y145.99
X166.903 Y145.286
X167.027 Y144.587
X167.165 Y143.892
X167.32 Y143.204
X167.492 Y142.521
X167.683 Y141.845
X167.894 Y141.175
X168.127 Y140.514
X168.381 Y139.859
X168.655 Y139.211
X168.947 Y138.57
X169.257 Y137.934
X169.582 Y137.304
X169.921 Y136.679
X170.273 Y136.058
X170.636 Y135.44
X171.01 Y134.827
X171.78 Y133.608
X172.574 Y132.396
X173.379 Y131.189
X174.565 Y130.002
X175.758 Y128.825
X176.963 Y127.664
X178.185 Y126.528
X178.805 Y125.973
X179.431 Y125.427
X180.065 Y124.892
X180.707 Y124.368
X181.358 Y123.858
X182.019 Y123.361
X182.69 Y122.879
X183.372 Y122.412
X184.064 Y121.959
X184.765 Y121.52
X185.474 Y121.094
X186.192 Y120.679
X186.918 Y120.275
X187.65 Y119.881
X189.133 Y119.118
X190.636 Y118.384
X192.154 Y117.672
X195.214 Y116.283
X197.91 Y115.164
X200.598 Y114.026
X203.272 Y112.855
X205.936 Y111.663
X208.148 Y110.606
X209.244 Y110.057
X210.326 Y109.486
X211.392 Y108.884
X212.444 Y108.256
X214.522 Y106.956
X215.32 Y106.381
X216.108 Y105.795
X216.874 Y105.187
X217.247 Y104.871
X217.61 Y104.545
X217.963 Y104.209
X218.306 Y103.862
X218.64 Y103.505
X218.967 Y103.141
X219.605 Y102.396
X220.232 Y101.639
X220.689 Y100.884
X221.121 Y100.122
X221.32 Y99.735
X221.503 Y99.343
X221.667 Y98.946
X221.809 Y98.541
X221.927 Y98.128
X222.024 Y97.709
X222.103 Y97.283
X222.165 Y96.853
X222.257 Y95.981
X222.324 Y95.101
X222.281 Y94.443
X222.224 Y93.789
X222.135 Y93.143
X222.074 Y92.824
X222. Y92.509
X221.911 Y92.197
X221.809 Y91.89
X221.694 Y91.585
X221.57 Y91.283
X221.301 Y90.684
X221.016 Y90.089
X220.613 Y89.497
X220.198 Y88.917
X219.982 Y88.635
X219.758 Y88.361
X219.525 Y88.096
X219.282 Y87.841
X219.027 Y87.597
X218.763 Y87.362
X218.211 Y86.916
X217.636 Y86.492
X217.05 Y86.079
X216.264 Y85.645
X215.472 Y85.224
X214.669 Y84.83
X214.261 Y84.648
X213.849 Y84.477
X213.432 Y84.319
X213.01 Y84.171
X212.157 Y83.901
X211.294 Y83.655
X210.425 Y83.421
X209.276 Y83.198
X208.125 Y82.99
X206.971 Y82.809
X206.393 Y82.733
X205.813 Y82.669
X205.232 Y82.617
X204.65 Y82.575
X203.483 Y82.517
X202.313 Y82.483
X201.142 Y82.462
X198.847 Y82.572
X197.701 Y82.639
X196.558 Y82.72
X195.418 Y82.819
X194.282 Y82.941
X193.151 Y83.091
X192.026 Y83.274
X190.907 Y83.491
X189.794 Y83.74
X188.685 Y84.015
X187.58 Y84.314
X186.479 Y84.631
X185.38 Y84.961
X183.185 Y85.643
X180.969 Y86.564
X179.867 Y87.036
X178.772 Y87.521
X177.688 Y88.023
X176.616 Y88.547
X175.56 Y89.097
X174.521 Y89.678
X173.502 Y90.292
X172.499 Y90.936
X171.512 Y91.605
X170.537 Y92.296
X169.572 Y93.004
X168.614 Y93.725
X166.71 Y95.188
Y67.294
G0 Z100.
X269.831 Y62.5
Z0.
G1 X297.376 F1000.
Y151.761
X269.831
Y62.5
G0 Z100.
X320.563
Z0.
G1 X348.108 F1000.
Y112.099
X348.192 Y114.126
X348.251 Y115.134
X348.33 Y116.136
X348.436 Y117.131
X348.576 Y118.115
X348.66 Y118.603
X348.755 Y119.088
X348.863 Y119.569
X348.982 Y120.047
X349.115 Y120.521
X349.263 Y120.99
X349.424 Y121.456
X349.598 Y121.917
X349.785 Y122.375
X349.982 Y122.83
X350.405 Y123.731
X350.86 Y124.623
X351.339 Y125.508
X352.336 Y127.266
X353.492 Y128.479
X354.08 Y129.065
X354.681 Y129.625
X354.987 Y129.894
X355.298 Y130.154
X355.613 Y130.403
X355.935 Y130.64
X356.262 Y130.866
X356.596 Y131.078
X356.938 Y131.275
X357.286 Y131.458
X357.643 Y131.624
X358.008 Y131.774
X358.379 Y131.911
X358.757 Y132.034
X359.142 Y132.145
X359.531 Y132.244
X359.926 Y132.333
X360.326 Y132.414
X361.136 Y132.55
X361.959 Y132.662
X363.624 Y132.845
X365.353 Y132.374
X366.208 Y132.13
X367.052 Y131.878
X367.882 Y131.613
X368.693 Y131.333
X369.483 Y131.035
X370.247 Y130.715
X370.618 Y130.546
X370.981 Y130.371
X371.337 Y130.189
X371.683 Y130.
X372.021 Y129.803
X372.349 Y129.598
X372.667 Y129.385
X372.974 Y129.163
X373.271 Y128.932
X373.556 Y128.691
X373.829 Y128.441
X374.09 Y128.18
X374.338 Y127.908
X374.574 Y127.626
X374.797 Y127.334
X375.009 Y127.032
X375.209 Y126.721
X375.398 Y126.4
X375.576 Y126.07
X375.743 Y125.731
X375.901 Y125.384
X376.048 Y125.029
X376.187 Y124.666
X376.316 Y124.295
X376.437 Y123.917
X376.55 Y123.533
X376.751 Y122.744
X376.924 Y121.931
X377.071 Y121.096
X377.195 Y120.242
X377.298 Y119.372
X377.385 Y118.487
X377.457 Y117.59
X377.517 Y116.683
X377.569 Y115.769
X377.659 Y113.93
Y62.5
X405.204
Y112.448
X405.312 Y114.396
X405.383 Y115.365
X405.473 Y116.328
X405.59 Y117.284
X405.74 Y118.229
X405.829 Y118.697
X405.928 Y119.162
X406.04 Y119.624
X406.163 Y120.082
X406.3 Y120.536
X406.45 Y120.986
X406.613 Y121.432
X406.788 Y121.874
X406.974 Y122.313
X407.169 Y122.749
X407.587 Y123.614
X408.034 Y124.469
X408.502 Y125.318
X409.475 Y127.005
X410.591 Y128.248
X411.16 Y128.85
X411.741 Y129.427
X412.038 Y129.704
X412.339 Y129.972
X412.646 Y130.23
X412.958 Y130.477
X413.277 Y130.711
X413.603 Y130.933
X413.936 Y131.14
X414.277 Y131.332
X414.626 Y131.508
X414.984 Y131.668
X415.349 Y131.813
X415.721 Y131.945
X416.1 Y132.064
X416.485 Y132.172
X416.876 Y132.269
X417.271 Y132.357
X418.074 Y132.509
X418.891 Y132.635
X420.546 Y132.845
X422.313 Y132.355
X423.187 Y132.103
X424.05 Y131.841
X424.898 Y131.566
X425.727 Y131.276
X426.533 Y130.967
X427.314 Y130.637
X427.693 Y130.463
X428.064 Y130.281
X428.427 Y130.093
X428.781 Y129.898
X429.125 Y129.695
X429.46 Y129.483
X429.784 Y129.263
X430.097 Y129.034
X430.399 Y128.796
X430.69 Y128.548
X430.968 Y128.29
X431.234 Y128.021
X431.486 Y127.742
X431.726 Y127.452
X431.953 Y127.151
X432.168 Y126.84
X432.372 Y126.52
X432.563 Y126.19
X432.744 Y125.851
X432.914 Y125.503
X433.074 Y125.147
X433.224 Y124.782
X433.365 Y124.409
X433.496 Y124.029
X433.618 Y123.642
X433.732 Y123.247
X433.838 Y122.846
X433.936 Y122.438
X434.11 Y121.604
X434.258 Y120.749
X434.383 Y119.874
X434.486 Y118.982
X434.573 Y118.075
X434.644 Y117.156
X434.704 Y116.227
X434.754 Y115.291
X434.841 Y113.407
Y62.5
X462.3
Y118.027
X462.031 Y121.638
X461.882 Y123.431
X461.716 Y125.208
X461.527 Y126.966
X461.422 Y127.835
X461.309 Y128.697
X461.187 Y129.552
X461.056 Y130.399
X460.915 Y131.236
X460.763 Y132.064
X460.599 Y132.882
X460.423 Y133.689
X460.234 Y134.485
X460.031 Y135.268
X459.814 Y136.039
X459.582 Y136.796
X459.334 Y137.539
X459.069 Y138.268
X458.787 Y138.981
X458.487 Y139.679
X458.168 Y140.36
X457.829 Y141.023
X457.471 Y141.669
X457.091 Y142.297
X456.689 Y142.905
X456.266 Y143.494
X455.819 Y144.062
X455.348 Y144.609
X454.853 Y145.135
X454.333 Y145.638
X453.789 Y146.121
X453.222 Y146.584
X452.633 Y147.026
X452.022 Y147.451
X451.391 Y147.856
X450.741 Y148.245
X450.071 Y148.617
X449.384 Y148.974
X448.679 Y149.315
X447.959 Y149.642
X447.223 Y149.955
X446.472 Y150.256
X445.708 Y150.544
X444.931 Y150.822
X444.142 Y151.088
X443.342 Y151.345
X442.531 Y151.593
X441.711 Y151.833
X440.883 Y152.065
X440.047 Y152.291
X438.356 Y152.724
X436.643 Y153.139
X433.185 Y153.94
X430.876 Y153.681
X429.725 Y153.544
X428.58 Y153.398
X427.442 Y153.239
X426.312 Y153.065
X425.192 Y152.873
X424.084 Y152.659
X422.99 Y152.421
X421.911 Y152.156
X420.85 Y151.859
X420.326 Y151.699
X419.807 Y151.529
X419.293 Y151.351
X418.784 Y151.163
X418.281 Y150.965
X417.784 Y150.756
X417.292 Y150.537
X416.807 Y150.307
X416.328 Y150.065
X415.856 Y149.812
X415.391 Y149.546
X414.932 Y149.268
X414.479 Y148.979
X414.033 Y148.679
X413.593 Y148.367
X413.159 Y148.046
X412.73 Y147.714
X412.307 Y147.373
X411.889 Y147.022
X411.475 Y146.663
X410.663 Y145.919
X409.868 Y145.144
X409.088 Y144.341
X408.322 Y143.514
X407.567 Y142.665
X406.824 Y141.798
X406.088 Y140.915
X405.36 Y140.02
X404.637 Y139.115
X403.199 Y137.291
X402.104 Y139.136
X401.551 Y140.05
X400.992 Y140.955
X400.425 Y141.847
X399.847 Y142.723
X399.257 Y143.58
X398.652 Y144.414
X398.031 Y145.224
X397.391 Y146.004
X396.731 Y146.752
X396.392 Y147.114
X396.047 Y147.466
X395.696 Y147.808
X395.339 Y148.141
X394.975 Y148.463
X394.604 Y148.775
X394.225 Y149.075
X393.839 Y149.364
X393.445 Y149.64
X393.044 Y149.905
X392.634 Y150.157
X392.216 Y150.397
X391.791 Y150.625
X391.359 Y150.842
X390.919 Y151.049
X390.473 Y151.245
X390.02 Y151.431
X389.561 Y151.607
X389.096 Y151.774
X388.625 Y151.932
X387.667 Y152.223
X386.688 Y152.483
X385.692 Y152.715
X384.679 Y152.922
X383.653 Y153.108
X382.614 Y153.275
X381.565 Y153.426
X380.509 Y153.566
X379.446 Y153.696
X377.31 Y153.94
X375.09 Y153.796
X373.985 Y153.707
X372.885 Y153.598
X371.792 Y153.463
X370.707 Y153.295
X370.169 Y153.196
X369.634 Y153.087
X369.102 Y152.966
X368.573 Y152.833
X368.047 Y152.686
X367.525 Y152.527
X367.006 Y152.357
X366.49 Y152.175
X365.466 Y151.782
X364.45 Y151.356
X363.442 Y150.903
X362.439 Y150.43
X360.443 Y149.451
X358.67 Y148.278
X357.795 Y147.68
X356.932 Y147.069
X356.087 Y146.44
X355.263 Y145.789
X354.861 Y145.454
X354.466 Y145.112
X354.078 Y144.761
X353.698 Y144.403
X353.327 Y144.036
X352.964 Y143.66
X352.61 Y143.276
X352.262 Y142.885
X351.587 Y142.082
X350.934 Y141.256
X350.299 Y140.411
X349.678 Y139.553
X348.457 Y137.814
X348.108
Y151.761
X320.563
Y62.5
G0 Z100.
X296.677 Y171.557
Z0.
G1 X297.124 Y172.125 F1000.
X297.544 Y172.706
X297.742 Y173.001
X297.93 Y173.3
X298.109 Y173.604
X298.276 Y173.913
X298.432 Y174.226
X298.575 Y174.545
X298.705 Y174.87
X298.823 Y175.2
X298.93 Y175.535
X299.025 Y175.874
X299.188 Y176.566
X299.318 Y177.271
X299.422 Y177.988
X299.507 Y178.713
X299.643 Y180.178
X299.506 Y181.623
X299.421 Y182.339
X299.317 Y183.046
X299.186 Y183.741
X299.023 Y184.422
X298.927 Y184.757
X298.821 Y185.086
X298.703 Y185.411
X298.573 Y185.73
X298.43 Y186.044
X298.274 Y186.352
X298.106 Y186.655
X297.928 Y186.953
X297.739 Y187.246
X297.542 Y187.536
X297.122 Y188.104
X296.675 Y188.661
X296.208 Y189.209
X295.241 Y190.289
X293.95 Y191.183
X293.299 Y191.613
X292.64 Y192.023
X291.973 Y192.406
X291.293 Y192.756
X290.949 Y192.917
X290.6 Y193.066
X290.247 Y193.204
X289.89 Y193.33
X289.529 Y193.444
X289.163 Y193.546
X288.794 Y193.638
X288.422 Y193.719
X287.667 Y193.857
X286.902 Y193.964
X286.128 Y194.047
X285.348 Y194.112
X283.778 Y194.212
X282.214 Y194.109
X281.437 Y194.043
X280.667 Y193.958
X279.905 Y193.85
X279.153 Y193.711
X278.782 Y193.629
X278.415 Y193.537
X278.051 Y193.434
X277.691 Y193.32
X277.335 Y193.194
X276.984 Y193.056
X276.637 Y192.906
X276.293 Y192.746
X275.616 Y192.397
X274.951 Y192.015
X274.295 Y191.606
X273.646 Y191.178
X272.359 Y190.289
X271.383 Y189.211
X270.912 Y188.665
X270.462 Y188.11
X270.038 Y187.542
X269.839 Y187.253
X269.648 Y186.96
X269.468 Y186.662
X269.299 Y186.359
X269.142 Y186.052
X268.997 Y185.738
X268.866 Y185.419
X268.746 Y185.094
X268.639 Y184.764
X268.542 Y184.43
X268.376 Y183.748
X268.244 Y183.051
X268.138 Y182.343
X268.052 Y181.626
X267.913 Y180.178
X268.063 Y178.731
X268.154 Y178.015
X268.264 Y177.307
X268.401 Y176.61
X268.57 Y175.928
X268.668 Y175.593
X268.778 Y175.263
X268.898 Y174.937
X269.031 Y174.617
X269.176 Y174.303
X269.334 Y173.994
X269.503 Y173.689
X269.682 Y173.39
X270.069 Y172.803
X270.488 Y172.23
X270.933 Y171.668
X271.398 Y171.115
X272.359 Y170.023
X273.632 Y169.09
X274.275 Y168.641
X274.926 Y168.212
X275.587 Y167.811
X276.26 Y167.443
X276.602 Y167.274
X276.948 Y167.116
X277.299 Y166.97
X277.654 Y166.837
X278.015 Y166.717
X278.379 Y166.608
X278.748 Y166.51
X279.12 Y166.422
X279.875 Y166.274
X280.641 Y166.158
X281.417 Y166.067
X282.2 Y165.995
X283.778 Y165.882
X285.354 Y165.986
X286.136 Y166.053
X286.912 Y166.139
X287.679 Y166.249
X288.435 Y166.39
X288.808 Y166.474
X289.177 Y166.568
X289.543 Y166.673
X289.905 Y166.789
X290.262 Y166.918
X290.614 Y167.059
X290.962 Y167.212
X291.307 Y167.376
X291.985 Y167.733
X292.65 Y168.124
X293.306 Y168.542
X293.955 Y168.981
X295.241 Y169.892
X296.209 Y170.997
X296.677 Y171.557
G0 Z100.

M5
M9
G49
M30
%
